{
  "norad_id": 66355,
  "name": "STARLINK-35861",
  "history": [
    {
      "epoch": "2026-03-28T13:45:09.912960",
      "apogee_km": 475.9733338150463,
      "perigee_km": 474.46011331288355,
      "latitude_deg": 6.608533274151475,
      "longitude_deg": 150.51101440005004,
      "semi_major_axis_km": 6853.353723563964,
      "eccentricity": 0.0001104,
      "inclination_deg": 53.1586,
      "raan_deg": 144.9682,
      "arg_perigee_deg": 74.6005,
      "mean_anomaly_deg": 285.5117,
      "mean_motion_rev_day": 15.30199446
    }
  ]
}